QIANFAN-25              
1 61558U 24185G   25199.59824214  .00000253  00000+0  14678-3 0  9994
2 61558  88.9810  94.8603 0009544  56.5755 303.6338 14.05743183 48831
QIANFAN-26              
1 61559U 24185H   25199.89857558  .00000196  00000+0  18329-3 0  9998
2 61559  88.9819  95.6140 0007979  90.8350 269.3731 13.77715387 48476
QIANFAN-27              
1 61560U 24185J   25199.86399890  .00000330  00000+0  12937-3 0  9996
2 61560  88.9808  94.1799 0010509  58.7706 301.4517 14.27111456 49217
QIANFAN-28              
1 61561U 24185K   25199.62911388  .00000539  00000+0  21284-3 0  9999
2 61561  88.9826  94.1992 0009519  60.4909 299.7234 14.27661949 49185
QIANFAN-29              
1 61562U 24185L   25199.64684290  .00000127  00000+0  17754-3 0  9991
2 61562  88.9815  96.5192 0011805 110.0915 250.1507 13.50951052 47939
QIANFAN-30              
1 61563U 24185M   25199.58434197  .00000074  00000+0  97771-4 0  9993
2 61563  88.9820  95.9991 0009640  96.7318 263.4929 13.49923536 48218
QIANFAN-31              
1 61564U 24185N   25199.53205939  .00000136  00000+0  17173-3 0  9995
2 61564  88.9802  96.0399 0009306  95.0326 265.1891 13.57900990 48184
QIANFAN-32              
1 61565U 24185P   25199.63456732  .00000090  00000+0  12177-3 0  9994
2 61565  88.9863  96.0835 0010923 118.6490 241.5761 13.50679356 48184
